{
  "norad_id": 53860,
  "name": "STARLINK-4799",
  "history": [
    {
      "epoch": "2026-03-28T14:10:46.631136Z",
      "apogee_km": 540.6161111802576,
      "perigee_km": 538.8645046458951,
      "latitude_deg": -1.2427871230948653e-05,
      "longitude_deg": 160.68082226261288,
      "height_km": 540.6158238302477,
      "semi_major_axis_km": 6917.877307913076,
      "eccentricity": 0.0001266,
      "inclination_deg": 53.2169,
      "raan_deg": 199.3842,
      "arg_perigee_deg": 88.6738,
      "mean_anomaly_deg": 271.4399,
      "mean_motion_rev_day": 15.08841008
    }
  ]
}